{
  "type": "FeatureCollection",
  "features": [
    {
      "type": "Feature",
      "properties": {
        "norad_id": 39766,
        "name": "ALOS-2",
        "group": "resource",
        "lat": 73.25167037499672,
        "lon": -76.89006690627609,
        "alt_km": 622.9307064376517,
        "timestamp": "2025-12-06T14:35:36.784493+00:00",
        "meta_object_name": "ALOS-2",
        "meta_object_id": "2014-029A",
        "meta_epoch": "2025-12-06T06:00:20.856096",
        "meta_mean_motion": 14.79464234,
        "meta_eccentricity": 0.00015069,
        "meta_inclination": 97.9235,
        "meta_ra_of_asc_node": 75.1891,
        "meta_arg_of_pericenter": 105.7888,
        "meta_mean_anomaly": 254.349,
        "meta_ephemeris_type": 0,
        "meta_classification_type": "U",
        "meta_norad_cat_id": 39766,
        "meta_element_set_no": 999,
        "meta_rev_at_epoch": 62305,
        "meta_bstar": 0.00052034417,
        "meta_mean_motion_dot": 3.836e-05,
        "meta_mean_motion_ddot": 0,
        "tle_line1": "1 39766U 14029A   25340.25024139  .00003836  00000+0  52034-3 0  9993",
        "tle_line2": "2 39766  97.9235  75.1891 0001506 105.7888 254.3490 14.79464234623055"
      },
      "geometry": {
        "type": "Point",
        "coordinates": [
          -76.89006690627609,
          73.25167037499672
        ]
      }
    },
    {
      "type": "Feature",
      "properties": {
        "norad_id": 40010,
        "name": "KAZEOSAT 2",
        "group": "resource",
        "lat": -68.27145109595438,
        "lon": -14.204173886058026,
        "alt_km": 615.5372476659122,
        "timestamp": "2025-12-06T14:35:36.784504+00:00",
        "meta_object_name": "KAZEOSAT 2",
        "meta_object_id": "2014-033A",
        "meta_epoch": "2025-12-06T07:00:18.715392",
        "meta_mean_motion": 14.85152176,
        "meta_eccentricity": 0.00073778,
        "meta_inclination": 97.5516,
        "meta_ra_of_asc_node": 184.9393,
        "meta_arg_of_pericenter": 230.4969,
        "meta_mean_anomaly": 129.5595,
        "meta_ephemeris_type": 0,
        "meta_classification_type": "U",
        "meta_norad_cat_id": 40010,
        "meta_element_set_no": 999,
        "meta_rev_at_epoch": 62032,
        "meta_bstar": 0.0001812312,
        "meta_mean_motion_dot": 1.502e-05,
        "meta_mean_motion_ddot": 0,
        "tle_line1": "1 40010U 14033A   25340.29188328  .00001502  00000+0  18123-3 0  9996",
        "tle_line2": "2 40010  97.5516 184.9393 0007377 230.4969 129.5595 14.85152176620323"
      },
      "geometry": {
        "type": "Point",
        "coordinates": [
          -14.204173886058026,
          -68.27145109595438
        ]
      }
    },
    {
      "type": "Feature",
      "properties": {
        "norad_id": 40011,
        "name": "HODOYOSHI-4",
        "group": "resource",
        "lat": -71.74792640046061,
        "lon": -166.52123036537043,
        "alt_km": 606.5149634794188,
        "timestamp": "2025-12-06T14:35:36.784514+00:00",
        "meta_object_name": "HODOYOSHI-4",
        "meta_object_id": "2014-033B",
        "meta_epoch": "2025-12-06T06:51:02.037600",
        "meta_mean_motion": 14.87446398,
        "meta_eccentricity": 0.00227863,
        "meta_inclination": 97.5414,
        "meta_ra_of_asc_node": 169.4876,
        "meta_arg_of_pericenter": 222.5707,
        "meta_mean_anomaly": 137.3744,
        "meta_ephemeris_type": 0,
        "meta_classification_type": "U",
        "meta_norad_cat_id": 40011,
        "meta_element_set_no": 999,
        "meta_rev_at_epoch": 62012,
        "meta_bstar": 0.00044409163,
        "meta_mean_motion_dot": 3.988e-05,
        "meta_mean_motion_ddot": 0,
        "tle_line1": "1 40011U 14033B   25340.28544025  .00003988  00000+0  44409-3 0  9992",
        "tle_line2": "2 40011  97.5414 169.4876 0022786 222.5707 137.3744 14.87446398620123"
      },
      "geometry": {
        "type": "Point",
        "coordinates": [
          -166.52123036537043,
          -71.74792640046061
        ]
      }
    },
    {
      "type": "Feature",
      "properties": {
        "norad_id": 40013,
        "name": "DEIMOS-2",
        "group": "resource",
        "lat": -37.0406416176099,
        "lon": -137.60130645312233,
        "alt_km": 595.6456922661691,
        "timestamp": "2025-12-06T14:35:36.784525+00:00",
        "meta_object_name": "DEIMOS-2",
        "meta_object_id": "2014-033D",
        "meta_epoch": "2025-12-06T06:43:04.838304",
        "meta_mean_motion": 14.92930455,
        "meta_eccentricity": 9.831e-05,
        "meta_inclination": 97.6072,
        "meta_ra_of_asc_node": 216.2928,
        "meta_arg_of_pericenter": 93.8706,
        "meta_mean_anomaly": 266.2626,
        "meta_ephemeris_type": 0,
        "meta_classification_type": "U",
        "meta_norad_cat_id": 40013,
        "meta_element_set_no": 999,
        "meta_rev_at_epoch": 60893,
        "meta_bstar": 0.00048812969,
        "meta_mean_motion_dot": 5.012e-05,
        "meta_mean_motion_ddot": 0,
        "tle_line1": "1 40013U 14033D   25340.27991711  .00005012  00000+0  48813-3 0  9994",
        "tle_line2": "2 40013  97.6072 216.2928 0000983  93.8706 266.2626 14.92930455608932"
      },
      "geometry": {
        "type": "Point",
        "coordinates": [
          -137.60130645312233,
          -37.0406416176099
        ]
      }
    },
    {
      "type": "Feature",
      "properties": {
        "norad_id": 40015,
        "name": "HODOYOSHI-3",
        "group": "resource",
        "lat": -82.33723484097621,
        "lon": -129.0457183571589,
        "alt_km": 599.4062206530707,
        "timestamp": "2025-12-06T14:35:36.784536+00:00",
        "meta_object_name": "HODOYOSHI-3",
        "meta_object_id": "2014-033F",
        "meta_epoch": "2025-12-06T06:54:22.997088",
        "meta_mean_motion": 14.8477251,
        "meta_eccentricity": 0.00318336,
        "meta_inclination": 97.6195,
        "meta_ra_of_asc_node": 146.4036,
        "meta_arg_of_pericenter": 270.036,
        "meta_mean_anomaly": 89.7207,
        "meta_ephemeris_type": 0,
        "meta_classification_type": "U",
        "meta_norad_cat_id": 40015,
        "meta_element_set_no": 999,
        "meta_rev_at_epoch": 61899,
        "meta_bstar": 0.00041152937,
        "meta_mean_motion_dot": 3.47e-05,
        "meta_mean_motion_ddot": 0,
        "tle_line1": "1 40015U 14033F   25340.28776617  .00003470  00000+0  41153-3 0  9999",
        "tle_line2": "2 40015  97.6195 146.4036 0031833 270.0360  89.7207 14.84772510618994"
      },
      "geometry": {
        "type": "Point",
        "coordinates": [
          -129.0457183571589,
          -82.33723484097621
        ]
      }
    },
    {
      "type": "Feature",
      "properties": {
        "norad_id": 40053,
        "name": "SPOT 7",
        "group": "resource",
        "lat": 16.04428718630986,
        "lon": -134.8304844163663,
        "alt_km": 691.1510775266543,
        "timestamp": "2025-12-06T14:35:36.784546+00:00",
        "meta_object_name": "SPOT 7",
        "meta_object_id": "2014-034A",
        "meta_epoch": "2025-12-06T05:37:36.413472",
        "meta_mean_motion": 14.60721499,
        "meta_eccentricity": 0.00015267,
        "meta_inclination": 98.0916,
        "meta_ra_of_asc_node": 42.4597,
        "meta_arg_of_pericenter": 95.2032,
        "meta_mean_anomaly": 264.9343,
        "meta_ephemeris_type": 0,
        "meta_classification_type": "U",
        "meta_norad_cat_id": 40053,
        "meta_element_set_no": 999,
        "meta_rev_at_epoch": 60896,
        "meta_bstar": 0.00025311181,
        "meta_mean_motion_dot": 1.188e-05,
        "meta_mean_motion_ddot": 0,
        "tle_line1": "1 40053U 14034A   25340.23444923  .00001188  00000+0  25311-3 0  9991",
        "tle_line2": "2 40053  98.0916  42.4597 0001526  95.2032 264.9343 14.60721499608966"
      },
      "geometry": {
        "type": "Point",
        "coordinates": [
          -134.8304844163663,
          16.04428718630986
        ]
      }
    },
    {
      "type": "Feature",
      "properties": {
        "norad_id": 40072,
        "name": "SKYSAT-B",
        "group": "resource",
        "lat": -51.90935629075313,
        "lon": 93.17691082152214,
        "alt_km": 611.6339339760234,
        "timestamp": "2025-12-06T14:35:36.784556+00:00",
        "meta_object_name": "SKYSAT-B",
        "meta_object_id": "2014-037D",
        "meta_epoch": "2025-12-06T07:05:32.883936",
        "meta_mean_motion": 14.87290568,
        "meta_eccentricity": 0.00056221,
        "meta_inclination": 98.3602,
        "meta_ra_of_asc_node": 283.6614,
        "meta_arg_of_pericenter": 169.6226,
        "meta_mean_anomaly": 190.5106,
        "meta_ephemeris_type": 0,
        "meta_classification_type": "U",
        "meta_norad_cat_id": 40072,
        "meta_element_set_no": 999,
        "meta_rev_at_epoch": 61728,
        "meta_bstar": 0.00035944313,
        "meta_mean_motion_dot": 3.182e-05,
        "meta_mean_motion_ddot": 0,
        "tle_line1": "1 40072U 14037D   25340.29551949  .00003182  00000+0  35944-3 0  9997",
        "tle_line2": "2 40072  98.3602 283.6614 0005622 169.6226 190.5106 14.87290568617286"
      },
      "geometry": {
        "type": "Point",
        "coordinates": [
          93.17691082152214,
          -51.90935629075313
        ]
      }
    }
  ]
}